{
  "norad_id": 66043,
  "name": "QIANFAN-101",
  "history": [
    {
      "epoch": "2026-05-07T19:52:18.571008Z",
      "apogee_km": 811.6058476707422,
      "perigee_km": 793.3814071383895,
      "latitude_deg": -7.702323008168225e-05,
      "longitude_deg": -118.55225903826295,
      "height_km": 804.2041011194145,
      "semi_major_axis_km": 7180.6306274045655,
      "eccentricity": 0.001269,
      "inclination_deg": 89.0022,
      "raan_deg": 45.1938,
      "arg_perigee_deg": 278.5801,
      "mean_anomaly_deg": 81.3954,
      "mean_motion_rev_day": 14.26786138
    },
    {
      "epoch": "2026-05-08T17:45:11.270592Z",
      "apogee_km": 811.5851061291423,
      "perigee_km": 793.3994444265736,
      "latitude_deg": -2.1501482889437634e-05,
      "longitude_deg": -87.77487563875971,
      "height_km": 804.7662867440076,
      "semi_major_axis_km": 7180.629275277858,
      "eccentricity": 0.0012663,
      "inclination_deg": 89.0022,
      "raan_deg": 45.0894,
      "arg_perigee_deg": 275.0224,
      "mean_anomaly_deg": 84.9524,
      "mean_motion_rev_day": 14.26786541
    },
    {
      "epoch": "2026-05-09T19:00:02.824704Z",
      "apogee_km": 811.5727999417022,
      "perigee_km": 793.408684005607,
      "latitude_deg": -6.157657958246479e-05,
      "longitude_deg": -107.6469717273244,
      "height_km": 805.4155190132099,
      "semi_major_axis_km": 7180.627741973654,
      "eccentricity": 0.0012648,
      "inclination_deg": 89.0022,
      "raan_deg": 44.969,
      "arg_perigee_deg": 270.9173,
      "mean_anomaly_deg": 89.0571,
      "mean_motion_rev_day": 14.26786998
    },
    {
      "epoch": "2026-05-10T16:52:55.493184Z",
      "apogee_km": 811.5591516972681,
      "perigee_km": 793.4194535316037,
      "latitude_deg": 2.5876434048178843e-06,
      "longitude_deg": -76.86945666555003,
      "height_km": 805.9783340417773,
      "semi_major_axis_km": 7180.626302614435,
      "eccentricity": 0.0012631,
      "inclination_deg": 89.0022,
      "raan_deg": 44.8646,
      "arg_perigee_deg": 267.3539,
      "mean_anomaly_deg": 92.6209,
      "mean_motion_rev_day": 14.26787427
    },
    {
      "epoch": "2026-05-11T19:48:46.452960Z",
      "apogee_km": 811.554771083097,
      "perigee_km": 793.4208212228914,
      "latitude_deg": 1.6726230954949276e-05,
      "longitude_deg": -122.06619878133769,
      "height_km": 806.6677877669555,
      "semi_major_axis_km": 7180.624796152993,
      "eccentricity": 0.0012627,
      "inclination_deg": 89.0023,
      "raan_deg": 44.7362,
      "arg_perigee_deg": 262.9712,
      "mean_anomaly_deg": 97.0046,
      "mean_motion_rev_day": 14.26787876
    },
    {
      "epoch": "2026-05-12T19:22:38.527104Z",
      "apogee_km": 811.5675870135419,
      "perigee_km": 793.404918557947,
      "latitude_deg": 2.4008906616837483e-05,
      "longitude_deg": -116.61333205273073,
      "height_km": 807.2703552480546,
      "semi_major_axis_km": 7180.623252785745,
      "eccentricity": 0.0012647,
      "inclination_deg": 89.0024,
      "raan_deg": 44.6238,
      "arg_perigee_deg": 259.1243,
      "mean_anomaly_deg": 100.8528,
      "mean_motion_rev_day": 14.26788336
    },
    {
      "epoch": "2026-05-13T07:09:34.577568Z",
      "apogee_km": 811.5506617356305,
      "perigee_km": 793.421025180467,
      "latitude_deg": -6.456320133079707e-05,
      "longitude_deg": 66.1130438592207,
      "height_km": 807.5729330135315,
      "semi_major_axis_km": 7180.622843458048,
      "eccentricity": 0.0012624,
      "inclination_deg": 89.0024,
      "raan_deg": 44.5676,
      "arg_perigee_deg": 257.1478,
      "mean_anomaly_deg": 102.8305,
      "mean_motion_rev_day": 14.26788458
    },
    {
      "epoch": "2026-05-14T06:43:26.652576Z",
      "apogee_km": 811.5560194774744,
      "perigee_km": 793.4130302954045,
      "latitude_deg": -7.307630105628198e-05,
      "longitude_deg": 71.56590682752966,
      "height_km": 808.1677561859849,
      "semi_major_axis_km": 7180.621524886439,
      "eccentricity": 0.00126333,
      "inclination_deg": 89.0024,
      "raan_deg": 44.4552,
      "arg_perigee_deg": 253.2636,
      "mean_anomaly_deg": 106.7171,
      "mean_motion_rev_day": 14.26788851
    },
    {
      "epoch": "2026-05-15T06:17:18.718080Z",
      "apogee_km": 811.586913357256,
      "perigee_km": 793.3805930499229,
      "latitude_deg": 6.341067391832645e-05,
      "longitude_deg": 77.0188114357483,
      "height_km": 808.7420422504065,
      "semi_major_axis_km": 7180.620753203589,
      "eccentricity": 0.00126774,
      "inclination_deg": 89.0023,
      "raan_deg": 44.3428,
      "arg_perigee_deg": 249.5054,
      "mean_anomaly_deg": 110.478,
      "mean_motion_rev_day": 14.26789081
    }
  ]
}